{
    "links": {
        "self": "http://www.neowsapp.com/rest/v1/neo/3662483?api_key=iIulBulltgU6a56xZRHN4H3l9WmuAYTsLGpBGhQ2"
    },
    "id": "3662483",
    "neo_reference_id": "3662483",
    "name": "(2014 DQ21)",
    "designation": "2014 DQ21",
    "nasa_jpl_url": "http://ssd.jpl.nasa.gov/sbdb.cgi?sstr=3662483",
    "absolute_magnitude_h": 20.9,
    "estimated_diameter": {
        "kilometers": {
            "estimated_diameter_min": 0.1756123185,
            "estimated_diameter_max": 0.3926810818
        },
        "meters": {
            "estimated_diameter_min": 175.6123184804,
            "estimated_diameter_max": 392.6810818086
        },
        "miles": {
            "estimated_diameter_min": 0.1091204019,
            "estimated_diameter_max": 0.2440006365
        },
        "feet": {
            "estimated_diameter_min": 576.1559189633,
            "estimated_diameter_max": 1288.3238004408
        }
    },
    "is_potentially_hazardous_asteroid": false,
    "close_approach_data": [
        {
            "close_approach_date": "2014-02-03",
            "close_approach_date_full": "2014-Feb-03 03:57",
            "epoch_date_close_approach": 1391399820000,
            "relative_velocity": {
                "kilometers_per_second": "28.8933983876",
                "kilometers_per_hour": "104016.2341954554",
                "miles_per_hour": "64631.6428532817"
            },
            "miss_distance": {
                "astronomical": "0.2776424469",
                "lunar": "108.0029118441",
                "kilometers": "41534718.677828103",
                "miles": "25808477.4314017014"
            },
            "orbiting_body": "Earth"
        }
    ],
    "orbital_data": {
        "orbit_id": "6",
        "orbit_determination_date": "2017-04-06 08:42:20",
        "first_observation_date": "2014-02-24",
        "last_observation_date": "2014-03-07",
        "data_arc_in_days": 11,
        "observations_used": 17,
        "orbit_uncertainty": "8",
        "minimum_orbit_intersection": ".268173",
        "jupiter_tisserand_invariant": "3.670",
        "epoch_osculation": "2456716.5",
        "eccentricity": ".3594467274964411",
        "semi_major_axis": "1.701875620329385",
        "inclination": "54.99003143629226",
        "ascending_node_longitude": "135.7111537418468",
        "orbital_period": "810.9426694685189",
        "perihelion_distance": "1.090141997996012",
        "perihelion_argument": "297.52411941",
        "aphelion_distance": "2.313609242662758",
        "perihelion_time": "2456633.342756806856",
        "mean_anomaly": "36.91581251872206",
        "mean_motion": ".443927805939647",
        "equinox": "J2000",
        "orbit_class": {
            "orbit_class_type": "AMO",
            "orbit_class_description": "Near-Earth asteroid orbits similar to that of 1221 Amor",
            "orbit_class_range": "1.017 AU < q (perihelion) < 1.3 AU"
        }
    },
    "is_sentry_object": false
}